{
    "links": {
        "self": "http://www.neowsapp.com/rest/v1/neo/3177210?api_key=iIulBulltgU6a56xZRHN4H3l9WmuAYTsLGpBGhQ2"
    },
    "id": "3177210",
    "neo_reference_id": "3177210",
    "name": "(2004 FY3)",
    "designation": "2004 FY3",
    "nasa_jpl_url": "http://ssd.jpl.nasa.gov/sbdb.cgi?sstr=3177210",
    "absolute_magnitude_h": 25.4,
    "estimated_diameter": {
        "kilometers": {
            "estimated_diameter_min": 0.022108281,
            "estimated_diameter_max": 0.0494356193
        },
        "meters": {
            "estimated_diameter_min": 22.1082810359,
            "estimated_diameter_max": 49.435619262
        },
        "miles": {
            "estimated_diameter_min": 0.0137374447,
            "estimated_diameter_max": 0.0307178602
        },
        "feet": {
            "estimated_diameter_min": 72.5337327539,
            "estimated_diameter_max": 162.1903570994
        }
    },
    "is_potentially_hazardous_asteroid": false,
    "close_approach_data": [
        {
            "close_approach_date": "1945-11-17",
            "close_approach_date_full": "1945-Nov-17 22:17",
            "epoch_date_close_approach": -761190180000,
            "relative_velocity": {
                "kilometers_per_second": "21.2972443379",
                "kilometers_per_hour": "76670.0796163428",
                "miles_per_hour": "47639.8058593881"
            },
            "miss_distance": {
                "astronomical": "0.3370330325",
                "lunar": "131.1058496425",
                "kilometers": "50419423.781640775",
                "miles": "31329177.184661695"
            },
            "orbiting_body": "Earth"
        },
        {
            "close_approach_date": "2004-03-17",
            "close_approach_date_full": "2004-Mar-17 05:09",
            "epoch_date_close_approach": 1079500140000,
            "relative_velocity": {
                "kilometers_per_second": "12.7145668407",
                "kilometers_per_hour": "45772.4406263425",
                "miles_per_hour": "28441.2145658516"
            },
            "miss_distance": {
                "astronomical": "0.0069324137",
                "lunar": "2.6967089293",
                "kilometers": "1037074.323478819",
                "miles": "644408.1030089422"
            },
            "orbiting_body": "Moon"
        },
        {
            "close_approach_date": "2004-03-17",
            "close_approach_date_full": "2004-Mar-17 07:38",
            "epoch_date_close_approach": 1079509080000,
            "relative_velocity": {
                "kilometers_per_second": "11.7461785768",
                "kilometers_per_hour": "42286.2428764022",
                "miles_per_hour": "26275.0268583956"
            },
            "miss_distance": {
                "astronomical": "0.0053297116",
                "lunar": "2.0732578124",
                "kilometers": "797313.503074292",
                "miles": "495427.6375255496"
            },
            "orbiting_body": "Earth"
        }
    ],
    "orbital_data": {
        "orbit_id": "8",
        "orbit_determination_date": "2017-04-06 09:13:04",
        "first_observation_date": "2004-03-19",
        "last_observation_date": "2004-03-30",
        "data_arc_in_days": 11,
        "observations_used": 27,
        "orbit_uncertainty": "9",
        "minimum_orbit_intersection": ".00516786",
        "jupiter_tisserand_invariant": "3.651",
        "epoch_osculation": "2453087.5",
        "eccentricity": ".5563450833472932",
        "semi_major_axis": "1.977678900538574",
        "inclination": "5.420869252835502",
        "ascending_node_longitude": "359.8078744297778",
        "orbital_period": "1015.855876201881",
        "perihelion_distance": ".8774069677842578",
        "perihelion_argument": "128.6913181061325",
        "aphelion_distance": "3.077950833292889",
        "perihelion_time": "2453046.470991759861",
        "mean_anomaly": "14.5399001103132",
        "mean_motion": ".3543809790676027",
        "equinox": "J2000",
        "orbit_class": {
            "orbit_class_type": "APO",
            "orbit_class_description": "Near-Earth asteroid orbits which cross the Earth’s orbit similar to that of 1862 Apollo",
            "orbit_class_range": "a (semi-major axis) > 1.0 AU; q (perihelion) < 1.017 AU"
        }
    },
    "is_sentry_object": false
}